{
  "norad_id": 47292,
  "name": "ONEWEB-0146",
  "history": [
    {
      "epoch": "2026-04-13T05:27:21.517632Z",
      "apogee_km": 1215.2125896606422,
      "perigee_km": 1212.2320256964476,
      "latitude_deg": -3.2097204977285485e-05,
      "longitude_deg": 80.30240387415327,
      "height_km": 1216.5648929027855,
      "semi_major_axis_km": 7591.859307678545,
      "eccentricity": 0.0001963,
      "inclination_deg": 87.9011,
      "raan_deg": 3.5632,
      "arg_perigee_deg": 88.2728,
      "mean_anomaly_deg": 271.8625,
      "mean_motion_rev_day": 13.12443255
    },
    {
      "epoch": "2026-04-14T10:43:51.642336Z",
      "apogee_km": 1215.2173255012494,
      "perigee_km": 1212.2290175005419,
      "latitude_deg": 1.2086718902338417e-05,
      "longitude_deg": -0.26719593614282316,
      "height_km": 1216.5609593841875,
      "semi_major_axis_km": 7591.860171500895,
      "eccentricity": 0.00019681,
      "inclination_deg": 87.901,
      "raan_deg": 3.3214,
      "arg_perigee_deg": 88.0939,
      "mean_anomaly_deg": 272.0415,
      "mean_motion_rev_day": 13.12443031
    },
    {
      "epoch": "2026-04-15T17:50:08.748384Z",
      "apogee_km": 1215.259715379556,
      "perigee_km": 1212.189111112355,
      "latitude_deg": -4.043203673760712e-06,
      "longitude_deg": -108.3730961625669,
      "height_km": 1216.5525252661494,
      "semi_major_axis_km": 7591.861413245955,
      "eccentricity": 0.00020223,
      "inclination_deg": 87.9013,
      "raan_deg": 3.0642,
      "arg_perigee_deg": 87.7872,
      "mean_anomaly_deg": 272.3488,
      "mean_motion_rev_day": 13.12442709
    },
    {
      "epoch": "2026-04-17T22:53:48.806304Z",
      "apogee_km": 1215.2627228342972,
      "perigee_km": 1212.194849870033,
      "latitude_deg": 2.11987457625493e-05,
      "longitude_deg": 173.09275720534475,
      "height_km": 1216.5500784382432,
      "semi_major_axis_km": 7591.865786352165,
      "eccentricity": 0.00020205,
      "inclination_deg": 87.9009,
      "raan_deg": 2.6261,
      "arg_perigee_deg": 87.5305,
      "mean_anomaly_deg": 272.6055,
      "mean_motion_rev_day": 13.12441575
    },
    {
      "epoch": "2026-04-18T09:52:30.222624Z",
      "apogee_km": 1215.2585529444032,
      "perigee_km": 1212.1978165765158,
      "latitude_deg": -1.7464745402665045e-05,
      "longitude_deg": 7.878730374411549,
      "height_km": 1216.539041946866,
      "semi_major_axis_km": 7591.86518476046,
      "eccentricity": 0.00020158,
      "inclination_deg": 87.9006,
      "raan_deg": 2.5355,
      "arg_perigee_deg": 87.1332,
      "mean_anomaly_deg": 273.0027,
      "mean_motion_rev_day": 13.12441731
    },
    {
      "epoch": "2026-04-19T09:39:40.005504Z",
      "apogee_km": 1215.2571518795621,
      "perigee_km": 1212.1986931768724,
      "latitude_deg": 0.00010450662403740581,
      "longitude_deg": 9.914613917079956,
      "height_km": 1216.5336529595995,
      "semi_major_axis_km": 7591.864922528217,
      "eccentricity": 0.00020143,
      "inclination_deg": 87.9004,
      "raan_deg": 2.339,
      "arg_perigee_deg": 86.9394,
      "mean_anomaly_deg": 273.1966,
      "mean_motion_rev_day": 13.12441799
    },
    {
      "epoch": "2026-04-20T09:26:49.850592Z",
      "apogee_km": 1215.260202759151,
      "perigee_km": 1212.1988584993405,
      "latitude_deg": -5.282468029714486e-06,
      "longitude_deg": 11.950227985690208,
      "height_km": 1216.5213443015448,
      "semi_major_axis_km": 7591.866530629246,
      "eccentricity": 0.00020162,
      "inclination_deg": 87.9001,
      "raan_deg": 2.1425,
      "arg_perigee_deg": 86.4201,
      "mean_anomaly_deg": 273.7158,
      "mean_motion_rev_day": 13.12441382
    },
    {
      "epoch": "2026-04-21T18:22:54.117696Z",
      "apogee_km": 1215.269625195635,
      "perigee_km": 1212.1842916829255,
      "latitude_deg": 1.2163276626124068e-05,
      "longitude_deg": -123.69222694314621,
      "height_km": 1216.5200238316738,
      "semi_major_axis_km": 7591.8639584392795,
      "eccentricity": 0.0002032,
      "inclination_deg": 87.9,
      "raan_deg": 1.8704,
      "arg_perigee_deg": 86.4957,
      "mean_anomaly_deg": 273.6404,
      "mean_motion_rev_day": 13.12442049
    },
    {
      "epoch": "2026-04-22T05:21:35.494272Z",
      "apogee_km": 1215.2666339510424,
      "perigee_km": 1212.1829715240056,
      "latitude_deg": 2.401056046393654e-05,
      "longitude_deg": 71.09381291611732,
      "height_km": 1216.518695247055,
      "semi_major_axis_km": 7591.861802737523,
      "eccentricity": 0.00020309,
      "inclination_deg": 87.9002,
      "raan_deg": 1.7797,
      "arg_perigee_deg": 86.5245,
      "mean_anomaly_deg": 273.6116,
      "mean_motion_rev_day": 13.12442608
    },
    {
      "epoch": "2026-04-23T05:08:45.142368Z",
      "apogee_km": 1215.2796565682484,
      "perigee_km": 1212.168360089816,
      "latitude_deg": 2.2579317391433873e-05,
      "longitude_deg": 73.13025333820008,
      "height_km": 1216.5101280834333,
      "semi_major_axis_km": 7591.861008329032,
      "eccentricity": 0.00020491,
      "inclination_deg": 87.9001,
      "raan_deg": 1.5832,
      "arg_perigee_deg": 86.2698,
      "mean_anomaly_deg": 273.8665,
      "mean_motion_rev_day": 13.12442814
    },
    {
      "epoch": "2026-04-24T15:54:35.980416Z",
      "apogee_km": 1215.273720480055,
      "perigee_km": 1212.1686504821937,
      "latitude_deg": -2.770729752356708e-06,
      "longitude_deg": -90.046486526001,
      "height_km": 1216.4828035082683,
      "semi_major_axis_km": 7591.858185481125,
      "eccentricity": 0.0002045,
      "inclination_deg": 87.9001,
      "raan_deg": 1.296,
      "arg_perigee_deg": 85.3552,
      "mean_anomaly_deg": 274.781,
      "mean_motion_rev_day": 13.12443546
    },
    {
      "epoch": "2026-04-25T17:31:32.242656Z",
      "apogee_km": 1215.29202059605,
      "perigee_km": 1212.1474735314168,
      "latitude_deg": 7.6916193499635e-05,
      "longitude_deg": -115.54490644195344,
      "height_km": 1216.5003580791279,
      "semi_major_axis_km": 7591.856747063734,
      "eccentricity": 0.0002071,
      "inclination_deg": 87.8998,
      "raan_deg": 1.084,
      "arg_perigee_deg": 86.1099,
      "mean_anomaly_deg": 274.0267,
      "mean_motion_rev_day": 13.12443919
    },
    {
      "epoch": "2026-04-26T17:18:41.634144Z",
      "apogee_km": 1215.2919175582529,
      "perigee_km": 1212.1446380342895,
      "latitude_deg": 6.164868501277719e-05,
      "longitude_deg": -113.507591744019,
      "height_km": 1216.4938048706229,
      "semi_major_axis_km": 7591.855277796271,
      "eccentricity": 0.00020728,
      "inclination_deg": 87.8996,
      "raan_deg": 0.8873,
      "arg_perigee_deg": 85.9278,
      "mean_anomaly_deg": 274.2088,
      "mean_motion_rev_day": 13.124443
    },
    {
      "epoch": "2026-04-27T15:16:04.141920Z",
      "apogee_km": 1215.2918855959924,
      "perigee_km": 1212.1473385872641,
      "latitude_deg": 4.635136551695763e-07,
      "longitude_deg": -83.9344869343681,
      "height_km": 1216.4794763436253,
      "semi_major_axis_km": 7591.856612091628,
      "eccentricity": 0.0002071,
      "inclination_deg": 87.8995,
      "raan_deg": 0.7059,
      "arg_perigee_deg": 85.3514,
      "mean_anomaly_deg": 274.7851,
      "mean_motion_rev_day": 13.12443954
    },
    {
      "epoch": "2026-04-28T15:03:13.555008Z",
      "apogee_km": 1215.2985530820606,
      "perigee_km": 1212.141858855819,
      "latitude_deg": -7.034226891002612e-05,
      "longitude_deg": -81.89706415144263,
      "height_km": 1216.463845097767,
      "semi_major_axis_km": 7591.8572059689395,
      "eccentricity": 0.0002079,
      "inclination_deg": 87.8994,
      "raan_deg": 0.5094,
      "arg_perigee_deg": 84.7783,
      "mean_anomaly_deg": 275.3582,
      "mean_motion_rev_day": 13.124438
    },
    {
      "epoch": "2026-04-29T16:40:09.924384Z",
      "apogee_km": 1215.2992087973416,
      "perigee_km": 1212.1425142985108,
      "latitude_deg": 4.772887963377925e-05,
      "longitude_deg": -107.39582950084582,
      "height_km": 1216.4525360024902,
      "semi_major_axis_km": 7591.857861547926,
      "eccentricity": 0.0002079,
      "inclination_deg": 87.8993,
      "raan_deg": 0.2975,
      "arg_perigee_deg": 84.3427,
      "mean_anomaly_deg": 275.7939,
      "mean_motion_rev_day": 13.1244363
    },
    {
      "epoch": "2026-04-30T14:37:32.588544Z",
      "apogee_km": 1215.3090185798283,
      "perigee_km": 1212.1337997187848,
      "latitude_deg": 1.238727602567273e-05,
      "longitude_deg": -77.82327801749878,
      "height_km": 1216.449597978699,
      "semi_major_axis_km": 7591.858409149306,
      "eccentricity": 0.00020912,
      "inclination_deg": 87.8993,
      "raan_deg": 0.1162,
      "arg_perigee_deg": 84.25,
      "mean_anomaly_deg": 275.8867,
      "mean_motion_rev_day": 13.12443488
    },
    {
      "epoch": "2026-05-02T08:42:31.238784Z",
      "apogee_km": 1215.3150926813569,
      "perigee_km": 1212.1325846177942,
      "latitude_deg": -2.0288040562912732e-05,
      "longitude_deg": 8.856156764298536,
      "height_km": 1216.437909003053,
      "semi_major_axis_km": 7591.860838649575,
      "eccentricity": 0.0002096,
      "inclination_deg": 87.8989,
      "raan_deg": 359.7683,
      "arg_perigee_deg": 83.7523,
      "mean_anomaly_deg": 276.3844,
      "mean_motion_rev_day": 13.12442858
    },
    {
      "epoch": "2026-05-03T21:18:09.261216Z",
      "apogee_km": 1215.3118322218697,
      "perigee_km": 1212.1353977405606,
      "latitude_deg": 4.427185527101154e-05,
      "longitude_deg": 178.14237036054863,
      "height_km": 1216.4272212113535,
      "semi_major_axis_km": 7591.860614981215,
      "eccentricity": 0.0002092,
      "inclination_deg": 87.8988,
      "raan_deg": 359.4658,
      "arg_perigee_deg": 83.3605,
      "mean_anomaly_deg": 276.7762,
      "mean_motion_rev_day": 13.12442916
    }
  ]
}